{
  "links" : {
    "next" : "https://api.nasa.gov/neo/rest/v1/feed?start_date=2013-08-16&end_date=2013-08-16&detailed=true&api_key=t0TVs3DtDT2H8Oy2Zy8m2eVrNsAVKAexjcZXUckd",
    "prev" : "https://api.nasa.gov/neo/rest/v1/feed?start_date=2013-08-14&end_date=2013-08-14&detailed=true&api_key=t0TVs3DtDT2H8Oy2Zy8m2eVrNsAVKAexjcZXUckd",
    "self" : "https://api.nasa.gov/neo/rest/v1/feed?start_date=2013-08-15&end_date=2013-08-15&detailed=true&api_key=t0TVs3DtDT2H8Oy2Zy8m2eVrNsAVKAexjcZXUckd"
  },
  "element_count" : 6,
  "near_earth_objects" : {
    "2013-08-15" : [ {
      "links" : {
        "self" : "https://api.nasa.gov/neo/rest/v1/neo/2168378?api_key=t0TVs3DtDT2H8Oy2Zy8m2eVrNsAVKAexjcZXUckd"
      },
      "neo_reference_id" : "2168378",
      "name" : "168378 (1997 ET30)",
      "nasa_jpl_url" : "http://ssd.jpl.nasa.gov/sbdb.cgi?sstr=2168378",
      "absolute_magnitude_h" : 16.9,
      "estimated_diameter" : {
        "kilometers" : {
          "estimated_diameter_min" : 1.1080388213,
          "estimated_diameter_max" : 2.4776501261
        },
        "meters" : {
          "estimated_diameter_min" : 1108.0388212642,
          "estimated_diameter_max" : 2477.6501260554
        },
        "miles" : {
          "estimated_diameter_min" : 0.6885031904,
          "estimated_diameter_max" : 1.5395399365
        },
        "feet" : {
          "estimated_diameter_min" : 3635.2980863563,
          "estimated_diameter_max" : 8128.7736395675
        }
      },
      "is_potentially_hazardous_asteroid" : false,
      "close_approach_data" : [ {
        "close_approach_date" : "2013-08-15",
        "epoch_date_close_approach" : 1376550000000,
        "relative_velocity" : {
          "kilometers_per_second" : "1.9354480025",
          "kilometers_per_hour" : "6967.6128088617",
          "miles_per_hour" : "4329.4036367063"
        },
        "miss_distance" : {
          "astronomical" : "0.4897538662",
          "lunar" : "190.514251709",
          "kilometers" : "73266136",
          "miles" : "45525468"
        },
        "orbiting_body" : "Earth"
      } ],
      "orbital_data" : {
        "orbit_id" : "163",
        "orbit_determination_date" : "2017-04-12 06:15:09",
        "orbit_uncertainty" : "0",
        "minimum_orbit_intersection" : ".207849",
        "jupiter_tisserand_invariant" : "3.572",
        "epoch_osculation" : "2458000.5",
        "eccentricity" : ".4483340379386067",
        "semi_major_axis" : "2.137989234763566",
        "inclination" : "6.814813874501423",
        "ascending_node_longitude" : "23.29576191941855",
        "orbital_period" : "1141.843799843431",
        "perihelion_distance" : "1.179455888072745",
        "perihelion_argument" : "263.3109779386054",
        "aphelion_distance" : "3.096522581454388",
        "perihelion_time" : "2457599.250563595600",
        "mean_anomaly" : "126.5057419634725",
        "mean_motion" : ".3152795505386665",
        "equinox" : "J2000"
      }
    }, {
      "links" : {
        "self" : "https://api.nasa.gov/neo/rest/v1/neo/3132126?api_key=t0TVs3DtDT2H8Oy2Zy8m2eVrNsAVKAexjcZXUckd"
      },
      "neo_reference_id" : "3132126",
      "name" : "(2002 PB)",
      "nasa_jpl_url" : "http://ssd.jpl.nasa.gov/sbdb.cgi?sstr=3132126",
      "absolute_magnitude_h" : 20.5,
      "estimated_diameter" : {
        "kilometers" : {
          "estimated_diameter_min" : 0.2111324448,
          "estimated_diameter_max" : 0.4721064988
        },
        "meters" : {
          "estimated_diameter_min" : 211.1324447897,
          "estimated_diameter_max" : 472.1064988055
        },
        "miles" : {
          "estimated_diameter_min" : 0.1311915784,
          "estimated_diameter_max" : 0.2933532873
        },
        "feet" : {
          "estimated_diameter_min" : 692.6917701639,
          "estimated_diameter_max" : 1548.9058855411
        }
      },
      "is_potentially_hazardous_asteroid" : false,
      "close_approach_data" : [ {
        "close_approach_date" : "2013-08-15",
        "epoch_date_close_approach" : 1376550000000,
        "relative_velocity" : {
          "kilometers_per_second" : "27.4154331365",
          "kilometers_per_hour" : "98695.5592913186",
          "miles_per_hour" : "61325.5823829863"
        },
        "miss_distance" : {
          "astronomical" : "0.4664221212",
          "lunar" : "181.4382019043",
          "kilometers" : "69775752",
          "miles" : "43356644"
        },
        "orbiting_body" : "Earth"
      } ],
      "orbital_data" : {
        "orbit_id" : "22",
        "orbit_determination_date" : "2017-04-06 09:14:59",
        "orbit_uncertainty" : "1",
        "minimum_orbit_intersection" : ".166726",
        "jupiter_tisserand_invariant" : "5.569",
        "epoch_osculation" : "2458000.5",
        "eccentricity" : ".3433025051628073",
        "semi_major_axis" : "1.072061612172575",
        "inclination" : "32.95169429109355",
        "ascending_node_longitude" : "142.7937411044009",
        "orbital_period" : "405.4413551715928",
        "perihelion_distance" : ".7040201750248518",
        "perihelion_argument" : "49.38287619792328",
        "aphelion_distance" : "1.440103049320298",
        "perihelion_time" : "2458069.451491995775",
        "mean_anomaly" : "298.7765041679741",
        "mean_motion" : ".8879212626142666",
        "equinox" : "J2000"
      }
    }, {
      "links" : {
        "self" : "https://api.nasa.gov/neo/rest/v1/neo/3455100?api_key=t0TVs3DtDT2H8Oy2Zy8m2eVrNsAVKAexjcZXUckd"
      },
      "neo_reference_id" : "3455100",
      "name" : "(2009 FF19)",
      "nasa_jpl_url" : "http://ssd.jpl.nasa.gov/sbdb.cgi?sstr=3455100",
      "absolute_magnitude_h" : 21.3,
      "estimated_diameter" : {
        "kilometers" : {
          "estimated_diameter_min" : 0.1460679643,
          "estimated_diameter_max" : 0.3266178974
        },
        "meters" : {
          "estimated_diameter_min" : 146.0679642714,
          "estimated_diameter_max" : 326.6178974458
        },
        "miles" : {
          "estimated_diameter_min" : 0.090762397,
          "estimated_diameter_max" : 0.2029508896
        },
        "feet" : {
          "estimated_diameter_min" : 479.2256199,
          "estimated_diameter_max" : 1071.581062656
        }
      },
      "is_potentially_hazardous_asteroid" : true,
      "close_approach_data" : [ {
        "close_approach_date" : "2013-08-15",
        "epoch_date_close_approach" : 1376550000000,
        "relative_velocity" : {
          "kilometers_per_second" : "12.2885552593",
          "kilometers_per_hour" : "44238.7989336499",
          "miles_per_hour" : "27488.2692596338"
        },
        "miss_distance" : {
          "astronomical" : "0.2946410986",
          "lunar" : "114.6153869629",
          "kilometers" : "44077684",
          "miles" : "27388602"
        },
        "orbiting_body" : "Earth"
      } ],
      "orbital_data" : {
        "orbit_id" : "31",
        "orbit_determination_date" : "2017-04-06 09:00:55",
        "orbit_uncertainty" : "1",
        "minimum_orbit_intersection" : ".00410468",
        "jupiter_tisserand_invariant" : "5.170",
        "epoch_osculation" : "2457800.5",
        "eccentricity" : ".4093554502720387",
        "semi_major_axis" : "1.213050356257196",
        "inclination" : ".5536883832554448",
        "ascending_node_longitude" : "84.34506342365722",
        "orbital_period" : "487.996459846045",
        "perihelion_distance" : ".7164815814688749",
        "perihelion_argument" : "245.3733903070446",
        "aphelion_distance" : "1.709619131045518",
        "perihelion_time" : "2457988.234503382648",
        "mean_anomaly" : "221.5063288797727",
        "mean_motion" : ".7377102696883788",
        "equinox" : "J2000"
      }
    } ]
  }
}